{
  "type": "FeatureCollection",
  "features": [
    {
      "type": "Feature",
      "properties": {
        "norad_id": 34752,
        "name": "COSMOS 2251 DEB",
        "group": "cosmos-2251-debris",
        "lat": -14.479465713480371,
        "lon": -11.452163323312467,
        "alt_km": 594.5259638452953,
        "timestamp": "2025-12-16T13:52:37.917214+00:00",
        "meta_object_name": "COSMOS 2251 DEB",
        "meta_object_id": "1993-036ZW",
        "meta_epoch": "2025-12-15T10:43:59.268000",
        "meta_mean_motion": 14.99998384,
        "meta_eccentricity": 0.0047576,
        "meta_inclination": 74.0135,
        "meta_ra_of_asc_node": 355.0943,
        "meta_arg_of_pericenter": 122.7305,
        "meta_mean_anomaly": 237.8482,
        "meta_ephemeris_type": 0,
        "meta_classification_type": "U",
        "meta_norad_cat_id": 34752,
        "meta_element_set_no": 999,
        "meta_rev_at_epoch": 89890,
        "meta_bstar": 0.00065261311,
        "meta_mean_motion_dot": 8.281e-05,
        "meta_mean_motion_ddot": 0,
        "tle_line1": "1 34752U 93036ZW  25349.44721375  .00008281  00000+0  65261-3 0  9999",
        "tle_line2": "2 34752  74.0135 355.0943 0047576 122.7305 237.8482 14.99998384898903"
      },
      "geometry": {
        "type": "Point",
        "coordinates": [
          -11.452163323312467,
          -14.479465713480371
        ]
      }
    },
    {
      "type": "Feature",
      "properties": {
        "norad_id": 34754,
        "name": "COSMOS 2251 DEB",
        "group": "cosmos-2251-debris",
        "lat": -35.99896511266681,
        "lon": 52.51110578241833,
        "alt_km": 772.817841795486,
        "timestamp": "2025-12-16T13:52:37.917224+00:00",
        "meta_object_name": "COSMOS 2251 DEB",
        "meta_object_id": "1993-036ZY",
        "meta_epoch": "2025-12-15T15:20:23.144928",
        "meta_mean_motion": 14.40485758,
        "meta_eccentricity": 0.0029682,
        "meta_inclination": 74.0299,
        "meta_ra_of_asc_node": 222.2395,
        "meta_arg_of_pericenter": 337.8117,
        "meta_mean_anomaly": 52.3169,
        "meta_ephemeris_type": 0,
        "meta_classification_type": "U",
        "meta_norad_cat_id": 34754,
        "meta_element_set_no": 999,
        "meta_rev_at_epoch": 88175,
        "meta_bstar": 0.00020355546,
        "meta_mean_motion_dot": 6.24e-06,
        "meta_mean_motion_ddot": 0,
        "tle_line1": "1 34754U 93036ZY  25349.63915677  .00000624  00000+0  20356-3 0  9991",
        "tle_line2": "2 34754  74.0299 222.2395 0029682 337.8117  52.3169 14.40485758881759"
      },
      "geometry": {
        "type": "Point",
        "coordinates": [
          52.51110578241833,
          -35.99896511266681
        ]
      }
    },
    {
      "type": "Feature",
      "properties": {
        "norad_id": 34755,
        "name": "COSMOS 2251 DEB",
        "group": "cosmos-2251-debris",
        "lat": 17.37186321406534,
        "lon": 98.68067836041925,
        "alt_km": 1302.1302412975638,
        "timestamp": "2025-12-16T13:52:37.917234+00:00",
        "meta_object_name": "COSMOS 2251 DEB",
        "meta_object_id": "1993-036ZZ",
        "meta_epoch": "2025-12-15T12:45:24.180768",
        "meta_mean_motion": 13.50566127,
        "meta_eccentricity": 0.04082662,
        "meta_inclination": 73.9259,
        "meta_ra_of_asc_node": 285.5372,
        "meta_arg_of_pericenter": 304.8647,
        "meta_mean_anomaly": 172.7755,
        "meta_ephemeris_type": 0,
        "meta_classification_type": "U",
        "meta_norad_cat_id": 34755,
        "meta_element_set_no": 999,
        "meta_rev_at_epoch": 82561,
        "meta_bstar": 0.00098242493,
        "meta_mean_motion_dot": 1.036e-05,
        "meta_mean_motion_ddot": 0,
        "tle_line1": "1 34755U 93036ZZ  25349.53152987  .00001036  00000+0  98242-3 0  9995",
        "tle_line2": "2 34755  73.9259 285.5372 0408266 304.8647 172.7755 13.50566127825613"
      },
      "geometry": {
        "type": "Point",
        "coordinates": [
          98.68067836041925,
          17.37186321406534
        ]
      }
    },
    {
      "type": "Feature",
      "properties": {
        "norad_id": 34756,
        "name": "COSMOS 2251 DEB",
        "group": "cosmos-2251-debris",
        "lat": -57.29857368400541,
        "lon": 71.51883495809595,
        "alt_km": 802.2483487064928,
        "timestamp": "2025-12-16T13:52:37.917244+00:00",
        "meta_object_name": "COSMOS 2251 DEB",
        "meta_object_id": "1993-036AAA",
        "meta_epoch": "2025-12-15T06:32:55.960224",
        "meta_mean_motion": 13.67249099,
        "meta_eccentricity": 0.03452085,
        "meta_inclination": 74.003,
        "meta_ra_of_asc_node": 100.2039,
        "meta_arg_of_pericenter": 335.4696,
        "meta_mean_anomaly": 23.0321,
        "meta_ephemeris_type": 0,
        "meta_classification_type": "U",
        "meta_norad_cat_id": 34756,
        "meta_element_set_no": 999,
        "meta_rev_at_epoch": 83456,
        "meta_bstar": 0.001012609,
        "meta_mean_motion_dot": 1.26e-05,
        "meta_mean_motion_ddot": 0,
        "tle_line1": "1 34756U 93036AAA 25349.27286991  .00001260  00000+0  10126-2 0  9993",
        "tle_line2": "2 34756  74.0030 100.2039 0345208 335.4696  23.0321 13.67249099834561"
      },
      "geometry": {
        "type": "Point",
        "coordinates": [
          71.51883495809595,
          -57.29857368400541
        ]
      }
    },
    {
      "type": "Feature",
      "properties": {
        "norad_id": 34758,
        "name": "COSMOS 2251 DEB",
        "group": "cosmos-2251-debris",
        "lat": -69.15522481525285,
        "lon": -115.11599960171039,
        "alt_km": 1234.6817937273581,
        "timestamp": "2025-12-16T13:52:37.917254+00:00",
        "meta_object_name": "COSMOS 2251 DEB",
        "meta_object_id": "1993-036AAC",
        "meta_epoch": "2025-12-15T13:30:14.961024",
        "meta_mean_motion": 13.580782,
        "meta_eccentricity": 0.03814729,
        "meta_inclination": 74.1074,
        "meta_ra_of_asc_node": 294.9538,
        "meta_arg_of_pericenter": 58.0073,
        "meta_mean_anomaly": 305.7517,
        "meta_ephemeris_type": 0,
        "meta_classification_type": "U",
        "meta_norad_cat_id": 34758,
        "meta_element_set_no": 999,
        "meta_rev_at_epoch": 82948,
        "meta_bstar": 0.0015175801,
        "meta_mean_motion_dot": 1.747e-05,
        "meta_mean_motion_ddot": 0,
        "tle_line1": "1 34758U 93036AAC 25349.56267316  .00001747  00000+0  15176-2 0  9997",
        "tle_line2": "2 34758  74.1074 294.9538 0381472  58.0073 305.7517 13.58078200829483"
      },
      "geometry": {
        "type": "Point",
        "coordinates": [
          -115.11599960171039,
          -69.15522481525285
        ]
      }
    },
    {
      "type": "Feature",
      "properties": {
        "norad_id": 34760,
        "name": "COSMOS 2251 DEB",
        "group": "cosmos-2251-debris",
        "lat": -51.47981082666063,
        "lon": -85.52544905363541,
        "alt_km": 780.4504374187327,
        "timestamp": "2025-12-16T13:52:37.917264+00:00",
        "meta_object_name": "COSMOS 2251 DEB",
        "meta_object_id": "1993-036AAE",
        "meta_epoch": "2025-12-15T15:17:34.568160",
        "meta_mean_motion": 14.19579445,
        "meta_eccentricity": 0.00969523,
        "meta_inclination": 74.0638,
        "meta_ra_of_asc_node": 297.1884,
        "meta_arg_of_pericenter": 348.6722,
        "meta_mean_anomaly": 190.5489,
        "meta_ephemeris_type": 0,
        "meta_classification_type": "U",
        "meta_norad_cat_id": 34760,
        "meta_element_set_no": 999,
        "meta_rev_at_epoch": 86729,
        "meta_bstar": 0.00062937679,
        "meta_mean_motion_dot": 1.367e-05,
        "meta_mean_motion_ddot": 0,
        "tle_line1": "1 34760U 93036AAE 25349.63720565  .00001367  00000+0  62938-3 0  9995",
        "tle_line2": "2 34760  74.0638 297.1884 0096952 348.6722 190.5489 14.19579445867299"
      },
      "geometry": {
        "type": "Point",
        "coordinates": [
          -85.52544905363541,
          -51.47981082666063
        ]
      }
    },
    {
      "type": "Feature",
      "properties": {
        "norad_id": 34761,
        "name": "COSMOS 2251 DEB",
        "group": "cosmos-2251-debris",
        "lat": 54.657870763860714,
        "lon": 151.90075034700848,
        "alt_km": 760.7270562689,
        "timestamp": "2025-12-16T13:52:37.917274+00:00",
        "meta_object_name": "COSMOS 2251 DEB",
        "meta_object_id": "1993-036AAF",
        "meta_epoch": "2025-12-15T10:36:07.110144",
        "meta_mean_motion": 14.38059333,
        "meta_eccentricity": 0.00365415,
        "meta_inclination": 74.0294,
        "meta_ra_of_asc_node": 357.8121,
        "meta_arg_of_pericenter": 31.0726,
        "meta_mean_anomaly": 329.2578,
        "meta_ephemeris_type": 0,
        "meta_classification_type": "U",
        "meta_norad_cat_id": 34761,
        "meta_element_set_no": 999,
        "meta_rev_at_epoch": 87688,
        "meta_bstar": 0.00051561114,
        "meta_mean_motion_dot": 1.548e-05,
        "meta_mean_motion_ddot": 0,
        "tle_line1": "1 34761U 93036AAF 25349.44174896  .00001548  00000+0  51561-3 0  9996",
        "tle_line2": "2 34761  74.0294 357.8121 0036541  31.0726 329.2578 14.38059333876886"
      },
      "geometry": {
        "type": "Point",
        "coordinates": [
          151.90075034700848,
          54.657870763860714
        ]
      }
    }
  ]
}